WILDBLUE-1              
1 29643U 06054A   16167.15107631 -.00000052  00000-0  00000+0 0  9991
2 29643   0.0181  44.9361 0002044  46.5622 115.5734  1.00273375 34908
AMC-18                  
1 29644U 06054B   16167.51228759 -.00000091  00000-0  00000+0 0  9990
2 29644   0.0204 315.3305 0003027 114.2335 274.1292  1.00271963 34917
MEASAT-3                
1 29648U 06056A   16167.03348389 -.00000244  00000-0  00000+0 0  9995
2 29648   0.0175 105.6660 0003653   4.6828 256.9530  1.00267282 34918
KIKU-8 (ETS-VIII)       
1 29656U 06059A   16167.03262056 -.00000246  00000-0  00000+0 0  9995
2 29656   4.8985  61.3715 0006610  13.4688 346.3202  1.00271878 34809
INSAT-4B                
1 30793U 07007A   16167.48210411 -.00000260  00000-0  00000+0 0  9996
2 30793   0.3925  89.7119 0001242 231.7654 209.7894  1.00272225 33922
SKYNET 5A               
1 30794U 07007B   16164.94573749 -.00000281  00000-0  00000-0 0  9995
2 30794   0.0689  15.4082 0003381  66.2337 255.7319  1.00271368 34041
ANIK F3                 
1 31102U 07009A   16167.40065612 -.00000003  00000-0  00000+0 0  9991
2 31102   0.0181   6.8999 0002453  67.4170 215.3138  1.00271821 33695
ASTRA 1L                
1 31306U 07016A   16166.16865317  .00000114  00000-0  00000-0 0  9990
2 31306   0.0529 324.0717 0001960  56.2060 322.5064  1.00273990  8438
GALAXY 17 (G-17)        
1 31307U 07016B   16166.72119785 -.00000178  00000-0  00000-0 0  9995
2 31307   0.0228 356.3159 0003050  82.4155 353.3479  1.00272618 33437
ZHONGXING-6B            
1 31800U 07031A   16167.40639628 -.00000364  00000-0  00000+0 0  9995
2 31800   0.0327  69.4501 0003092  13.2279  83.2785  1.00272379 32839
DIRECTV 10              
1 31862U 07032A   16165.55709069 -.00000110  00000-0  00000+0 0  9994
2 31862   0.0372 185.6149 0000279 186.1483 348.2342  1.00272555 32757
SPACEWAY 3              
1 32018U 07036A   16165.49151730 -.00000159  00000-0  00000+0 0  9994
2 32018   0.0455 156.5548 0000858 215.4270 332.2437  1.00273278 32465
BSAT-3A                 
1 32019U 07036B   16166.96239792 -.00000354  00000-0  00000+0 0  9990
2 32019   0.0474 219.2540 0001606 303.0553 197.6958  1.00272760 32428
INSAT-4CR               
1 32050U 07037A   16166.71223567 -.00000081  00000-0  00000+0 0  9999
2 32050   0.0443 101.6641 0003902 184.7255 307.4096  1.00272350 32204
OPTUS D2                
1 32252U 07044A   16166.56039046 -.00000188  00000-0  00000+0 0  9999
2 32252   0.0245  19.1159 0002973  68.4454 169.4720  1.00271551 31796
INTELSAT 11 (IS-11)     
1 32253U 07044B   16166.18669066 -.00000274  00000-0  00000-0 0  9996
2 32253   0.0205 256.8363 0003100 183.4116 206.8649  1.00271377 31967
STAR ONE C1             
1 32293U 07056A   16167.44689088 -.00000279  00000-0  00000+0 0  9993
2 32293   0.0182 351.8097 0002894  96.4652 271.7583  1.00270465 31473
SKYNET 5B               
1 32294U 07056B   16166.80814178  .00000138  00000-0  00000+0 0  9996
2 32294   0.0667   8.8741 0003520  75.8167 134.8679  1.00274131 31565
ASTRA 4A (SIRIUS 4)     
1 32299U 07057A   16166.99820912  .00000029  00000-0  00000-0 0  9995
2 32299   0.0209  30.5848 0002567  41.5750 195.7008  1.00273252 15062
HORIZONS-2              
1 32388U 07063B   16166.68302451 -.00000186  00000-0  00000+0 0  9994
2 32388   0.0117 328.7945 0003189 107.9649 157.3760  1.00271763 31235
THURAYA-3               
1 32404U 08001A   16166.96809520 -.00000307  00000-0  00000-0 0  9992
2 32404   4.2182 350.1573 0004942  84.6673 275.8706  1.00271140 30878
EXPRESS-AM33            
1 32478U 08003A   16167.40217119 -.00000283  00000-0  00000+0 0  9994
2 32478   0.0329 210.3634 0000279  59.4600 235.5570  1.00271463 30982
THOR 5                  
1 32487U 08006A   16167.23336373 -.00000012  00000-0  00000-0 0  9993
2 32487   0.0165 258.0670 0002399 183.6142 265.5146  1.00272047 30683
KIZUNA (WINDS)          
1 32500U 08007A   16166.84151093 -.00000262  00000-0  00000+0 0  9996
2 32500   0.0719  96.8940 0002757 342.6276 269.9824  1.00270913 30383
AMC-14                  
1 32708U 08011A   16167.01051081  .00000092  00000-0  00000+0 0  9997
2 32708  18.4371  68.5368 0042846   3.5155 213.4321  1.00274768 31459
DIRECTV 11              
1 32729U 08013A   16167.27595170 -.00000128  00000-0  00000+0 0  9993
2 32729   0.0446 148.2568 0000709 248.3631 227.5283  1.00272176 30295
ICO G1                  
1 32763U 08016A   16167.42809866 -.00000175  00000-0  00000+0 0  9993
2 32763   3.9904 350.7890 0003136  99.5701 235.0498  1.00272091 29828
VINASAT-1               
1 32767U 08018A   16165.90399849 -.00000334  00000-0  00000+0 0  9992
2 32767   0.0195 313.9879 0001619 132.6799 273.3483  1.00272102 29956
STAR ONE C2             
1 32768U 08018B   16166.46346263 -.00000270  00000-0  00000+0 0  9996
2 32768   0.0186 132.7594 0002421 344.8643 242.3996  1.00270555 29905
TIANLIAN 1-01           
1 32779U 08019A   16167.10461611 -.00000140  00000-0  10000-3 0  9997
2 32779   2.0634  77.8156 0031900 226.0488  77.6212  1.00270079 29824
AMOS-3                  
1 32794U 08022A   16167.06117609 -.00000037  00000-0  00000-0 0  9999
2 32794   0.0145 353.4577 0002309  57.1854 231.1405  1.00271653 45724
GALAXY 18 (G-18)        
1 32951U 08024A   16166.61016152  .00000021  00000-0  00000+0 0  9998
2 32951   0.0225 329.5147 0003023 117.3530 273.1669  1.00271429 29449
CHINASAT 9 (ZX 9)       
1 33051U 08028A   16167.48156169 -.00000249  00000-0  00000+0 0  9996
2 33051   0.0043 342.5936 0003344 102.0620  85.0800  1.00270189 29378
SKYNET 5C               
1 33055U 08030A   16167.31491390 -.00000142  00000-0  00000+0 0  9995
2 33055   0.0617   2.0475 0003667  80.2777 277.2437  1.00272387 29264
TURKSAT 3A              
1 33056U 08030B   16167.17325843  .00000143  00000-0  00000+0 0  9999
2 33056   0.0574 143.6429 0004927 311.8395 272.7557  1.00271078 29446
INTELSAT 25 (IS-25)     
1 33153U 08034A   16166.35699194 -.00000229  00000-0  00000+0 0  9999
2 33153   0.0248 323.4977 0002685  98.4282 298.1012  1.00270067 28983
BADR-6                  
1 33154U 08034B   16166.16611525  .00000139  00000-0  00000-0 0  9991
2 33154   0.0627  36.1782 0005727  29.2057 283.2856  1.00271423 14803
ECHOSTAR 11             
1 33207U 08035A   16165.57702289 -.00000064  00000-0  00000-0 0  9991
2 33207   0.0140  45.0232 0003257  48.2924 266.7187  1.00272186 14610
SUPERBIRD-C2            
1 33274U 08038A   16166.84151093 -.00000254  00000-0  00000+0 0  9990
2 33274   0.0096   4.9349 0001541  74.0341 271.4773  1.00272653 28732
AMC-21                  
1 33275U 08038B   16167.40387891  .00000034  00000-0  00000+0 0  9996
2 33275   0.0267 315.1481 0002895 131.9885 197.4686  1.00273170 28821
INMARSAT 4-F3           
1 33278U 08039A   16166.32790683 -.00000146  00000-0  00000+0 0  9992
2 33278   3.0184 357.8268 0002517  91.9359 193.3583  1.00271154 28611
NIMIQ 4                 
1 33373U 08044A   16167.27119361 -.00000223  00000-0  00000+0 0  9993
2 33373   0.0016   1.7217 0002257  77.8269 200.0585  1.00271905 28196
GALAXY 19 (G-19)        
1 33376U 08045A   16166.53830289 -.00000143  00000-0  00000+0 0  9995
2 33376   0.0194   5.2076 0003353  81.2334 273.5974  1.00269754 28194
VENESAT-1               
1 33414U 08055A   16167.01663671 -.00000241  00000-0  00000+0 0  9991
2 33414   0.0304 130.4638 0002114   2.8929  58.3728  1.00272191 27912
ASTRA 1M                
1 33436U 08057A   16167.23719796  .00000117  00000-0  00000-0 0  9993
2 33436   0.0144   4.6584 0004991 101.8252 262.0193  1.00272272  9105
CIEL-2                  
1 33453U 08063A   16166.39333038  .00000053  00000-0  00000+0 0  9994
2 33453   0.0153  18.9847 0002978  60.7711 196.0943  1.00272545 27528
EUTELSAT HOT BIRD 13C   
1 33459U 08065A   16166.23370121  .00000081  00000-0  00000-0 0  9991
2 33459   0.0744  67.8771 0005690  17.7741 274.4121  1.00272308 10739
EUTELSAT 48D            
1 33460U 08065B   16167.10525068  .00000121  00000-0  00000-0 0  9997
2 33460   0.0450   6.7869 0001722  83.0336 259.9764  1.00271811 27392
FENGYUN 2E              
1 33463U 08066A   16166.94006584 -.00000204  00000-0  00000+0 0  9991
2 33463   1.5043  62.3115 0002875 192.1938  74.2481  1.00267470 27447
EXPRESS-AM44            
1 33595U 09007A   16167.11888681 -.00000092  00000-0  00000+0 0  9994
2 33595   0.0046  86.9976 0000981  29.6957 178.9264  1.00271816 26919
NSS-9                   
1 33749U 09008A   16167.28721598  .00000069  00000-0  00000+0 0  9990
2 33749   0.0244 323.1842 0002312 113.9558 113.3157  1.00272707 26927
EUTELSAT HOT BIRD 13D   
1 33750U 09008B   16166.93066147  .00000152  00000-0  00000+0 0  9998
2 33750   0.0326 322.7822 0003476 167.4754 141.5378  1.00276288 26956
TELSTAR 11N             
1 34111U 09009A   16167.19539916 -.00000253  00000-0  00000+0 0  9992
2 34111   0.0184 357.3740 0002998  72.7658 226.5549  1.00272236 26775
EUTELSAT 10A            
1 34710U 09016A   16165.98495193  .00000062  00000-0  00000+0 0  9995
2 34710   0.0644  13.4316 0005227  72.0873 181.7724  1.00273483 26312
SES-7 (PROTOSTAR 2)     
1 34941U 09027A   16166.89621296 -.00000348  00000-0  00000+0 0  9997
2 34941   0.0266  44.4075 0000689 259.2293  30.8229  1.00272767 25975
MEASAT-3A               
1 35362U 09032A   16165.01870469 -.00000251  00000-0  00000-0 0  9996
2 35362   0.0429 173.3628 0000702 311.3320 235.3075  1.00272988 25579
GOES 14                 
1 35491U 09033A   16166.55987568 -.00000094  00000-0  00000-0 0  9994
2 35491   0.2428  99.6523 0003745  97.1543 163.1792  1.00270773 25533
SIRIUS FM-5             
1 35493U 09034A   16166.13923196 -.00000206  00000-0  00000+0 0  9992
2 35493   0.0117 109.1744 0000826 229.1426 248.5364  1.00271580 25321
TERRESTAR-1             
1 35496U 09035A   16166.51580109 -.00000062  00000-0  00000+0 0  9991
2 35496   3.2000 337.9049 0002337 114.5424 245.4770  1.00272348 25514
